SL-16 R/B               
1 25400U 98043G   26055.61103833  .00000066  00000+0  46465-4 0  9998
2 25400  98.8231   8.8838 0010756  55.8054 304.4143 14.26046350437122
SL-16 R/B               
1 25407U 98045B   26055.50605661 -.00000093  00000+0 -22730-4 0  9992
2 25407  71.0105 209.2968 0006038  29.5832 330.5631 14.16191329425230
ISS (ZARYA)             
1 25544U 98067A   26055.54083190  .00010485  00000+0  20315-3 0  9999
2 25544  51.6319 137.3540 0008350 128.7945 231.3790 15.48264633554294
CZ-4B R/B               
1 25732U 99025C   26055.56405685  .00000038  00000+0  39091-4 0  9997
2 25732  98.6656 100.1549 0037470  24.3523 142.0500 14.18262458386304
OKEAN-O                 
1 25860U 99039A   26055.60634577  .00000661  00000+0  93632-4 0  9996
2 25860  97.9473 115.6289 0001615  76.0976 284.0416 14.80311830432454
SL-16 R/B               
1 25861U 99039B   26055.59855360  .00000564  00000+0  78337-4 0  9997
2 25861  97.9996 114.7128 0013594 302.8678  57.1225 14.81710999434926
DELTA 2 R/B             
1 25876U 99041E   26055.55739692  .00001647  00000+0  30263-3 0  9999
2 25876  51.7659 353.7267 0502246 309.6556  46.1070 14.11786308361174
HELIOS 1B               
1 25977U 99064A   26055.59809496  .00001709  00000+0  19433-3 0  9995
2 25977  98.1709 317.4560 0002465  92.3859 267.7638 14.87637096683316
TERRA                   
1 25994U 99068A   26055.58448573  .00000442  00000+0  99211-4 0  9998
2 25994  97.9623 109.5180 0001774 186.2382 333.3279 14.60998960393164
SL-16 R/B               
1 26070U 00006B   26055.58870326  .00000246  00000+0  14921-3 0  9999
2 26070  71.0019 125.3857 0017600 208.2016 151.8155 14.15820058346709
TITAN 4B R/B            
1 26474U 00047B   26055.57683622  .00003310  00000+0  21147-3 0  9995
2 26474  67.9884  77.3807 0037782  51.1573 309.2938 15.09426630390932
ENVISAT                 
1 27386U 02009A   26055.63150907  .00000129  00000+0  55614-4 0  9992
2 27386  98.3704   9.5416 0001357  86.0871  88.1729 14.39031413257299
