CCSDS_OMM_VERS = 2.0
CREATION_DATE  = 
ORIGINATOR     = 

OBJECT_NAME    = SL-16 R/B
OBJECT_ID      = 1998-043G
CENTER_NAME    = EARTH
REF_FRAME      = TEME
TIME_SYSTEM    = UTC
MEAN_ELEMENT_THEORY = SGP/SGP4

EPOCH          = 2026-02-24T14:39:53.711712
MEAN_MOTION    = 14.26046350
ECCENTRICITY   = .00107563
INCLINATION    = 98.8231
RA_OF_ASC_NODE = 8.8838
ARG_OF_PERICENTER = 55.8054
MEAN_ANOMALY   = 304.4143

EPHEMERIS_TYPE = 0
CLASSIFICATION_TYPE = U
NORAD_CAT_ID   = 25400
ELEMENT_SET_NO = 999
REV_AT_EPOCH   = 43712
BSTAR          = .4646501E-4
MEAN_MOTION_DOT = .66E-6
MEAN_MOTION_DDOT = 0

CCSDS_OMM_VERS = 2.0
CREATION_DATE  = 
ORIGINATOR     = 

OBJECT_NAME    = SL-16 R/B
OBJECT_ID      = 1998-045B
CENTER_NAME    = EARTH
REF_FRAME      = TEME
TIME_SYSTEM    = UTC
MEAN_ELEMENT_THEORY = SGP/SGP4

EPOCH          = 2026-02-24T12:08:43.291104
MEAN_MOTION    = 14.16191329
ECCENTRICITY   = .00060388
INCLINATION    = 71.0105
RA_OF_ASC_NODE = 209.2968
ARG_OF_PERICENTER = 29.5832
MEAN_ANOMALY   = 330.5631

EPHEMERIS_TYPE = 0
CLASSIFICATION_TYPE = U
NORAD_CAT_ID   = 25407
ELEMENT_SET_NO = 999
REV_AT_EPOCH   = 42523
BSTAR          = -.22730073E-4
MEAN_MOTION_DOT = -.93E-6
MEAN_MOTION_DDOT = 0

CCSDS_OMM_VERS = 2.0
CREATION_DATE  = 
ORIGINATOR     = 

OBJECT_NAME    = ISS (ZARYA)
OBJECT_ID      = 1998-067A
CENTER_NAME    = EARTH
REF_FRAME      = TEME
TIME_SYSTEM    = UTC
MEAN_ELEMENT_THEORY = SGP/SGP4

EPOCH          = 2026-02-24T12:58:47.876160
MEAN_MOTION    = 15.48264633
ECCENTRICITY   = .00083509
INCLINATION    = 51.6319
RA_OF_ASC_NODE = 137.3540
ARG_OF_PERICENTER = 128.7945
MEAN_ANOMALY   = 231.3790

EPHEMERIS_TYPE = 0
CLASSIFICATION_TYPE = U
NORAD_CAT_ID   = 25544
ELEMENT_SET_NO = 999
REV_AT_EPOCH   = 55429
BSTAR          = .20315178E-3
MEAN_MOTION_DOT = .10485E-3
MEAN_MOTION_DDOT = 0

CCSDS_OMM_VERS = 2.0
CREATION_DATE  = 
ORIGINATOR     = 

OBJECT_NAME    = CZ-4B R/B
OBJECT_ID      = 1999-025C
CENTER_NAME    = EARTH
REF_FRAME      = TEME
TIME_SYSTEM    = UTC
MEAN_ELEMENT_THEORY = SGP/SGP4

EPOCH          = 2026-02-24T13:32:14.511840
MEAN_MOTION    = 14.18262458
ECCENTRICITY   = .00374705
INCLINATION    = 98.6656
RA_OF_ASC_NODE = 100.1549
ARG_OF_PERICENTER = 24.3523
MEAN_ANOMALY   = 142.0500

EPHEMERIS_TYPE = 0
CLASSIFICATION_TYPE = U
NORAD_CAT_ID   = 25732
ELEMENT_SET_NO = 999
REV_AT_EPOCH   = 38630
BSTAR          = .39090911E-4
MEAN_MOTION_DOT = .38E-6
MEAN_MOTION_DDOT = 0

CCSDS_OMM_VERS = 2.0
CREATION_DATE  = 
ORIGINATOR     = 

OBJECT_NAME    = OKEAN-O
OBJECT_ID      = 1999-039A
CENTER_NAME    = EARTH
REF_FRAME      = TEME
TIME_SYSTEM    = UTC
MEAN_ELEMENT_THEORY = SGP/SGP4

EPOCH          = 2026-02-24T14:33:08.274528
MEAN_MOTION    = 14.80311830
ECCENTRICITY   = .00016158
INCLINATION    = 97.9473
RA_OF_ASC_NODE = 115.6289
ARG_OF_PERICENTER = 76.0976
MEAN_ANOMALY   = 284.0416

EPHEMERIS_TYPE = 0
CLASSIFICATION_TYPE = U
NORAD_CAT_ID   = 25860
ELEMENT_SET_NO = 999
REV_AT_EPOCH   = 43245
BSTAR          = .93632023E-4
MEAN_MOTION_DOT = .661E-5
MEAN_MOTION_DDOT = 0

CCSDS_OMM_VERS = 2.0
CREATION_DATE  = 
ORIGINATOR     = 

OBJECT_NAME    = SL-16 R/B
OBJECT_ID      = 1999-039B
CENTER_NAME    = EARTH
REF_FRAME      = TEME
TIME_SYSTEM    = UTC
MEAN_ELEMENT_THEORY = SGP/SGP4

EPOCH          = 2026-02-24T14:21:55.031040
MEAN_MOTION    = 14.81710999
ECCENTRICITY   = .00135947
INCLINATION    = 97.9996
RA_OF_ASC_NODE = 114.7128
ARG_OF_PERICENTER = 302.8678
MEAN_ANOMALY   = 57.1225

EPHEMERIS_TYPE = 0
CLASSIFICATION_TYPE = U
NORAD_CAT_ID   = 25861
ELEMENT_SET_NO = 999
REV_AT_EPOCH   = 43492
BSTAR          = .78337019E-4
MEAN_MOTION_DOT = .564E-5
MEAN_MOTION_DDOT = 0

CCSDS_OMM_VERS = 2.0
CREATION_DATE  = 
ORIGINATOR     = 

OBJECT_NAME    = DELTA 2 R/B
OBJECT_ID      = 1999-041E
CENTER_NAME    = EARTH
REF_FRAME      = TEME
TIME_SYSTEM    = UTC
MEAN_ELEMENT_THEORY = SGP/SGP4

EPOCH          = 2026-02-24T13:22:39.093888
MEAN_MOTION    = 14.11786308
ECCENTRICITY   = .05022463
INCLINATION    = 51.7659
RA_OF_ASC_NODE = 353.7267
ARG_OF_PERICENTER = 309.6556
MEAN_ANOMALY   = 46.1070

EPHEMERIS_TYPE = 0
CLASSIFICATION_TYPE = U
NORAD_CAT_ID   = 25876
ELEMENT_SET_NO = 999
REV_AT_EPOCH   = 36117
BSTAR          = .30263192E-3
MEAN_MOTION_DOT = .1647E-4
MEAN_MOTION_DDOT = 0

CCSDS_OMM_VERS = 2.0
CREATION_DATE  = 
ORIGINATOR     = 

OBJECT_NAME    = HELIOS 1B
OBJECT_ID      = 1999-064A
CENTER_NAME    = EARTH
REF_FRAME      = TEME
TIME_SYSTEM    = UTC
MEAN_ELEMENT_THEORY = SGP/SGP4

EPOCH          = 2026-02-24T14:21:15.404544
MEAN_MOTION    = 14.87637096
ECCENTRICITY   = .00024655
INCLINATION    = 98.1709
RA_OF_ASC_NODE = 317.4560
ARG_OF_PERICENTER = 92.3859
MEAN_ANOMALY   = 267.7638

EPHEMERIS_TYPE = 0
CLASSIFICATION_TYPE = U
NORAD_CAT_ID   = 25977
ELEMENT_SET_NO = 999
REV_AT_EPOCH   = 68331
BSTAR          = .19433088E-3
MEAN_MOTION_DOT = .1709E-4
MEAN_MOTION_DDOT = 0

CCSDS_OMM_VERS = 2.0
CREATION_DATE  = 
ORIGINATOR     = 

OBJECT_NAME    = TERRA
OBJECT_ID      = 1999-068A
CENTER_NAME    = EARTH
REF_FRAME      = TEME
TIME_SYSTEM    = UTC
MEAN_ELEMENT_THEORY = SGP/SGP4

EPOCH          = 2026-02-24T14:01:39.567072
MEAN_MOTION    = 14.60998960
ECCENTRICITY   = .00017746
INCLINATION    = 97.9623
RA_OF_ASC_NODE = 109.5180
ARG_OF_PERICENTER = 186.2382
MEAN_ANOMALY   = 333.3279

EPHEMERIS_TYPE = 0
CLASSIFICATION_TYPE = U
NORAD_CAT_ID   = 25994
ELEMENT_SET_NO = 999
REV_AT_EPOCH   = 39316
BSTAR          = .99210966E-4
MEAN_MOTION_DOT = .442E-5
MEAN_MOTION_DDOT = 0

CCSDS_OMM_VERS = 2.0
CREATION_DATE  = 
ORIGINATOR     = 

OBJECT_NAME    = SL-16 R/B
OBJECT_ID      = 2000-006B
CENTER_NAME    = EARTH
REF_FRAME      = TEME
TIME_SYSTEM    = UTC
MEAN_ELEMENT_THEORY = SGP/SGP4

EPOCH          = 2026-02-24T14:07:43.961664
MEAN_MOTION    = 14.15820058
ECCENTRICITY   = .00176009
INCLINATION    = 71.0019
RA_OF_ASC_NODE = 125.3857
ARG_OF_PERICENTER = 208.2016
MEAN_ANOMALY   = 151.8155

EPHEMERIS_TYPE = 0
CLASSIFICATION_TYPE = U
NORAD_CAT_ID   = 26070
ELEMENT_SET_NO = 999
REV_AT_EPOCH   = 34670
BSTAR          = .14920668E-3
MEAN_MOTION_DOT = .246E-5
MEAN_MOTION_DDOT = 0

CCSDS_OMM_VERS = 2.0
CREATION_DATE  = 
ORIGINATOR     = 

OBJECT_NAME    = TITAN 4B R/B
OBJECT_ID      = 2000-047B
CENTER_NAME    = EARTH
REF_FRAME      = TEME
TIME_SYSTEM    = UTC
MEAN_ELEMENT_THEORY = SGP/SGP4

EPOCH          = 2026-02-24T13:50:38.649408
MEAN_MOTION    = 15.09426630
ECCENTRICITY   = .00377826
INCLINATION    = 67.9884
RA_OF_ASC_NODE = 77.3807
ARG_OF_PERICENTER = 51.1573
MEAN_ANOMALY   = 309.2938

EPHEMERIS_TYPE = 0
CLASSIFICATION_TYPE = U
NORAD_CAT_ID   = 26474
ELEMENT_SET_NO = 999
REV_AT_EPOCH   = 39093
BSTAR          = .2114728E-3
MEAN_MOTION_DOT = .331E-4
MEAN_MOTION_DDOT = 0

CCSDS_OMM_VERS = 2.0
CREATION_DATE  = 
ORIGINATOR     = 

OBJECT_NAME    = ENVISAT
OBJECT_ID      = 2002-009A
CENTER_NAME    = EARTH
REF_FRAME      = TEME
TIME_SYSTEM    = UTC
MEAN_ELEMENT_THEORY = SGP/SGP4

EPOCH          = 2026-02-24T15:09:22.383648
MEAN_MOTION    = 14.39031413
ECCENTRICITY   = .00013576
INCLINATION    = 98.3704
RA_OF_ASC_NODE = 9.5416
ARG_OF_PERICENTER = 86.0871
MEAN_ANOMALY   = 88.1729

EPHEMERIS_TYPE = 0
CLASSIFICATION_TYPE = U
NORAD_CAT_ID   = 27386
ELEMENT_SET_NO = 999
REV_AT_EPOCH   = 25729
BSTAR          = .55613922E-4
MEAN_MOTION_DOT = .129E-5
MEAN_MOTION_DDOT = 0

